NORAD_CAT_ID,OBJECT_NAME,OBJECT_TYPE,EPOCH,MEAN_MOTION,ECCENTRICITY,INCLINATION,RA_OF_ASC_NODE,ARG_OF_PERICENTER,MEAN_ANOMALY,BSTAR,MEAN_MOTION_DOT,MEAN_MOTION_DDOT,TLE_LINE0,TLE_LINE1,TLE_LINE2,SEMIMAJOR_AXIS,PERIOD,APOGEE,PERIGEE,DECAYED
53420.0,STARLINK-4552,PAYLOAD,2024-03-01 13:25:58,15.08841241,0.0001247,53.2171,187.7163,91.4457,268.6678,8.2707e-05,1.029e-05,0.0,0 STARLINK-4552,1 53420U 22097AJ  24061.55970743  .00001029  00000-0  82707-4 0  9997,2 53420  53.2171 187.7163 0001247  91.4457 268.6678 15.08841241 87194,6917.877,95.437,540.604,538.879,0.0
53420.0,STARLINK-4552,PAYLOAD,2024-03-01 15:01:21,15.08847243,0.000139,53.2176,187.4196,92.3866,267.7285,3.0446e-05,1.97e-06,0.0,0 STARLINK-4552,1 53420U 22097AJ  24061.62594557  .00000197  00000-0  30446-4 0  9998,2 53420  53.2176 187.4196 0001390  92.3866 267.7285 15.08847243 87209,6917.858,95.437,540.685,538.762,0.0
53420.0,STARLINK-4552,PAYLOAD,2024-03-02 13:16:46,15.08838513,0.00014,53.2177,183.256,91.0875,269.0278,5.7343e-06,-1.97e-06,0.0,0 STARLINK-4552,1 53420U 22097AJ  24062.55331144 -.00000197  00000-0  57343-5 0  9999,2 53420  53.2177 183.2560 0001400  91.0875 269.0278 15.08838513 87349,6917.885,95.438,540.718,538.781,0.0
53420.0,STARLINK-4552,PAYLOAD,2024-03-03 14:42:56,15.0884272,0.0001479,53.2183,178.4984,97.9948,262.1213,1.8932e-05,1.3e-07,0.0,0 STARLINK-4552,1 53420U 22097AJ  24063.61314958  .00000013  00000-0  18932-4 0  9997,2 53420  53.2183 178.4984 0001479  97.9948 262.1213 15.08842720 87500,6917.872,95.437,540.76,538.714,0.0
53420.0,STARLINK-4552,PAYLOAD,2024-03-03 17:53:42,15.08843888,0.0001504,53.2184,177.8994,94.4768,265.6396,3.4725e-05,2.65e-06,0.0,0 STARLINK-4552,1 53420U 22097AJ  24063.74562762  .00000265  00000-0  34725-4 0  9996,2 53420  53.2184 177.8994 0001504  94.4768 265.6396 15.08843888 87524,6917.869,95.437,540.774,538.693,0.0
53420.0,STARLINK-4552,PAYLOAD,2024-03-04 12:58:19,15.08847295,0.0001668,53.2181,174.3364,88.3582,271.7601,0.00015058,2.11e-05,0.0,0 STARLINK-4552,1 53420U 22097AJ  24064.54050066  .00002110  00000-0  15058-3 0  9992,2 53420  53.2181 174.3364 0001668  88.3582 271.7601 15.08847295 87647,6917.858,95.437,540.877,538.569,0.0
53420.0,STARLINK-4552,PAYLOAD,2024-03-04 14:33:41,15.08856672,0.0001389,53.2179,174.0383,97.0368,263.0782,0.00022339,3.271e-05,0.0,0 STARLINK-4552,1 53420U 22097AJ  24064.60673164  .00003271  00000-0  22339-3 0  9998,2 53420  53.2179 174.0383 0001389  97.0368 263.0782 15.08856672 87194,6917.829,95.437,540.655,538.734,0.0
53420.0,STARLINK-4552,PAYLOAD,2024-03-05 14:24:31,15.08825208,0.0001326,53.2171,169.5761,84.4644,275.6499,-0.00010176,-1.906e-05,0.0,0 STARLINK-4552,1 53420U 22097AJ  24065.60036734 -.00001906  00000-0 -10176-3 0  9996,2 53420  53.2171 169.5761 0001326  84.4644 275.6499 15.08825208 87806,6917.926,95.438,540.708,538.873,0.0
53420.0,STARLINK-4552,PAYLOAD,2024-03-06 11:04:31,15.08844557,0.0001229,53.2168,165.7129,117.9128,242.1988,4.5223e-06,-2.16e-06,0.0,0 STARLINK-4552,1 53420U 22097AJ  24066.46147356 -.00000216  00000-0  45223-5 0  9999,2 53420  53.2168 165.7129 0001229 117.9128 242.1988 15.08844557 87472,6917.866,95.437,540.582,538.881,0.0
53420.0,STARLINK-4552,PAYLOAD,2024-03-06 14:15:16,15.08859627,0.0001258,53.2169,165.1155,84.3094,275.8042,4.4382e-05,4.19e-06,0.0,0 STARLINK-4552,1 53420U 22097AJ  24066.59394256  .00000419  00000-0  44382-4 0  9994,2 53420  53.2169 165.1155 0001258  84.3094 275.8042 15.08859627 87958,6917.82,95.436,540.556,538.815,0.0
53420.0,STARLINK-4552,PAYLOAD,2024-03-06 19:01:25,15.08866124,0.0001265,53.2166,164.2232,95.5639,264.5497,0.00011948,1.615e-05,0.0,0 STARLINK-4552,1 53420U 22097AJ  24066.79265500  .00001615  00000-0  11948-3 0  9995,2 53420  53.2166 164.2232 0001265  95.5639 264.5497 15.08866124 87520,6917.801,95.436,540.541,538.79,0.0
53420.0,STARLINK-4552,PAYLOAD,2024-03-07 12:30:42,15.08832804,0.0001476,53.2163,160.9546,92.1267,267.9894,0.00024034,3.538e-05,0.0,0 STARLINK-4552,1 53420U 22097AJ  24067.52132503  .00003538  00000-0  24034-3 0  9999,2 53420  53.2163 160.9546 0001476  92.1267 267.9894 15.08832804 88091,6917.902,95.438,540.788,538.746,0.0
53420.0,STARLINK-4552,PAYLOAD,2024-03-08 12:21:28,15.08852932,0.0001503,53.2174,156.4925,92.4751,267.6413,0.00022697,3.327e-05,0.0,0 STARLINK-4552,1 53420U 22097AJ  24068.51491423  .00003327  00000-0  22697-3 0  9997,2 53420  53.2174 156.4925 0001503  92.4751 267.6413 15.08852932 87789,6917.841,95.437,540.746,538.666,0.0
53420.0,STARLINK-4552,PAYLOAD,2024-03-09 05:50:43,15.08845361,0.0001578,53.2159,153.2238,77.987,282.1299,0.00025436,3.763e-05,0.0,0 STARLINK-4552,1 53420U 22097AJ  24069.24355861  .00003763  00000-0  25436-3 0  9991,2 53420  53.2159 153.2238 0001578  77.9870 282.1299 15.08845361 87890,6917.864,95.437,540.821,538.637,0.0
53420.0,STARLINK-4552,PAYLOAD,2024-03-09 12:12:15,15.08842383,0.0001566,53.2168,152.0317,81.167,278.9499,7.5013e-05,9.06e-06,0.0,0 STARLINK-4552,1 53420U 22097AJ  24069.50851803  .00000906  00000-0  75013-4 0  9990,2 53420  53.2168 152.0317 0001566  81.1670 278.9499 15.08842383 88399,6917.873,95.437,540.821,538.655,0.0
53420.0,STARLINK-4552,PAYLOAD,2024-03-10 05:41:30,15.08842797,0.000158,53.2159,148.76,77.6661,282.4508,4.2388e-05,3.87e-06,0.0,0 STARLINK-4552,1 53420U 22097AJ  24070.23715713  .00000387  00000-0  42388-4 0  9993,2 53420  53.2159 148.7600 0001580  77.6661 282.4508 15.08842797 88044,6917.872,95.437,540.83,538.644,0.0
53420.0,STARLINK-4552,PAYLOAD,2024-03-10 10:27:39,15.08843373,0.0001543,53.217,147.8694,92.5638,267.5531,7.6991e-06,-1.65e-06,0.0,0 STARLINK-4552,1 53420U 22097AJ  24070.43587665 -.00000165  00000-0  76991-5 0  9991,2 53420  53.2170 147.8694 0001543  92.5638 267.5531 15.08843373 88534,6917.87,95.437,540.803,538.668,0.0
53420.0,STARLINK-4552,PAYLOAD,2024-03-10 21:35:21,15.08843181,0.0001524,53.2166,145.7875,90.6835,269.4332,-1.3186e-05,-4.98e-06,0.0,0 STARLINK-4552,1 53420U 22097AJ  24070.89955602 -.00000498  00000-0 -13186-4 0  9997,2 53420  53.2166 145.7875 0001524  90.6835 269.4332 15.08843181 88609,6917.871,95.437,540.79,538.681,0.0
53420.0,STARLINK-4552,PAYLOAD,2024-03-11 03:56:54,15.08836823,0.0001644,53.2173,144.6001,98.1525,261.9654,7.8238e-05,9.57e-06,0.0,0 STARLINK-4552,1 53420U 22097AJ  24071.16452016  .00000957  00000-0  78238-4 0  9996,2 53420  53.2173 144.6001 0001644  98.1525 261.9654 15.08836823 88180,6917.89,95.438,540.892,538.618,0.0
53420.0,STARLINK-4552,PAYLOAD,2024-03-11 11:53:50,15.0883762,0.0001586,53.2181,143.1136,99.8156,260.3015,0.00010257,1.345e-05,0.0,0 STARLINK-4552,1 53420U 22097AJ  24071.49572119  .00001345  00000-0  10257-3 0  9997,2 53420  53.2181 143.1136 0001586  99.8156 260.3015 15.08837620 88691,6917.888,95.438,540.85,538.655,0.0
53420.0,STARLINK-4552,PAYLOAD,2024-03-12 11:44:37,15.08838507,0.0001487,53.2177,138.6531,95.99,264.1262,6.3883e-05,7.29e-06,0.0,0 STARLINK-4552,1 53420U 22097AJ  24072.48932349  .00000729  00000-0  63883-4 0  9991,2 53420  53.2177 138.6531 0001487  95.9900 264.1262 15.08838507 88385,6917.885,95.438,540.779,538.721,0.0
53420.0,STARLINK-4552,PAYLOAD,2024-03-12 21:16:56,15.08846281,0.0001335,53.2166,136.8683,96.6043,263.5101,-1.7093e-05,-5.6e-06,0.0,0 STARLINK-4552,1 53420U 22097AJ  24072.88675947 -.00000560  00000-0 -17093-4 0  9990,2 53420  53.2166 136.8683 0001335  96.6043 263.5101 15.08846281 88900,6917.861,95.437,540.65,538.803,0.0
53420.0,STARLINK-4552,PAYLOAD,2024-03-13 13:10:47,15.08849872,0.0001462,53.2171,133.8943,89.652,270.464,0.00015982,2.257e-05,0.0,0 STARLINK-4552,1 53420U 22097AJ  24073.54915510  .00002257  00000-0  15982-3 0  9994,2 53420  53.2171 133.8943 0001462  89.6520 270.4640 15.08849872 88549,6917.85,95.437,540.727,538.704,0.0
53420.0,STARLINK-4552,PAYLOAD,2024-03-13 21:07:43,15.08845757,0.0001532,53.2173,132.4053,81.1743,278.9423,4.0239e-05,3.53e-06,0.0,0 STARLINK-4552,1 53420U 22097AJ  24073.88035965  .00000353  00000-0  40239-4 0  9997,2 53420  53.2173 132.4053 0001532  81.1743 278.9423 15.08845757 88595,6917.863,95.437,540.788,538.668,0.0
53420.0,STARLINK-4552,PAYLOAD,2024-03-14 03:29:16,15.08839107,0.000164,53.2163,131.2157,80.9395,279.1783,5.6701e-05,6.14e-06,0.0,0 STARLINK-4552,1 53420U 22097AJ  24074.14532541  .00000614  00000-0  56701-4 0  9990,2 53420  53.2163 131.2157 0001640  80.9395 279.1783 15.08839107 88635,6917.883,95.438,540.883,538.614,0.0
53420.0,STARLINK-4552,PAYLOAD,2024-03-14 13:01:34,15.08845927,0.0001479,53.2165,129.4324,83.7084,276.4077,0.00012906,1.767e-05,0.0,0 STARLINK-4552,1 53420U 22097AJ  24074.54275908  .00001767  00000-0  12906-3 0  9993,2 53420  53.2165 129.4324 0001479  83.7084 276.4077 15.08845927 88697,6917.862,95.437,540.75,538.704,0.0
53420.0,STARLINK-4552,PAYLOAD,2024-03-15 03:20:02,15.08838196,0.0001585,53.2152,126.7558,83.6194,276.4978,1.7388e-06,-2.6e-06,0.0,0 STARLINK-4552,1 53420U 22097AJ  24075.13892347 -.00000260  00000-0  17388-5 0  9990,2 53420  53.2152 126.7558 0001585  83.6194 276.4978 15.08838196 88781,6917.886,95.438,540.847,538.654,0.0
53420.0,STARLINK-4552,PAYLOAD,2024-03-15 09:41:35,15.08845781,0.0001439,53.2161,125.5669,90.6691,269.4466,-2.8371e-06,-3.33e-06,0.0,0 STARLINK-4552,1 53420U 22097AJ  24075.40388086 -.00000333  00000-0 -28371-5 0  9996,2 53420  53.2161 125.5669 0001439  90.6691 269.4466 15.08845781 89287,6917.863,95.437,540.723,538.732,0.0
53420.0,STARLINK-4552,PAYLOAD,2024-03-16 12:43:08,15.08843364,0.0001451,53.2158,120.511,83.6827,276.4331,4.7619e-05,4.7e-06,0.0,0 STARLINK-4552,1 53420U 22097AJ  24076.52996130  .00000470  00000-0  47619-4 0  9990,2 53420  53.2158 120.5110 0001451  83.6827 276.4331 15.08843364 88997,6917.87,95.437,540.739,538.731,0.0
53420.0,STARLINK-4552,PAYLOAD,2024-03-17 09:23:09,15.0884042,0.000154,53.2165,116.6444,99.3379,260.7788,4.4962e-05,4.28e-06,0.0,0 STARLINK-4552,1 53420U 22097AJ  24077.39108300  .00000428  00000-0  44962-4 0  9991,2 53420  53.2165 116.6444 0001540  99.3379 260.7788 15.08840420 89584,6917.879,95.438,540.809,538.679,0.0
